start=new Date('2022-09-26T00:00:00.000Z').valueOf();
sats=[{"NORAD_CAT_ID":"51856","FILE":"3583828","OBJECT_ID":"2022-022E","LAUNCH_DATE":"2022-03-03","ARG_OF_PERICENTER":"59.1301","EPHEMERIS_TYPE":"0","PERIAPSIS":"538.671","REF_FRAME":"TEME","TIME_SYSTEM":"UTC","INCLINATION":"53.2158","MEAN_MOTION_DOT":"0.00000925","RCS_SIZE":"LARGE","SITE":"AFETR","CENTER_NAME":"EARTH","PERIOD":"95.437","MEAN_ANOMALY":"300.9842","OBJECT_TYPE":"PAYLOAD","REV_AT_EPOCH":"3269","OBJECT_NAME":"STARLINK-3568","MEAN_MOTION_DDOT":"0.0000000000000","GP_ID":"213508271","TLE_LINE2":"2 51856  53.2158 279.6264 0001542  59.1301 300.9842 15.08842512 32690","COUNTRY_CODE":"US","DECAY_DATE":null,"APOAPSIS":"540.804","SEMIMAJOR_AXIS":"6917.873","TLE_LINE1":"1 51856U 22022E   22268.76682821  .00000925  00000-0  76197-4 0  9993","BSTAR":"0.00007619700000","CLASSIFICATION_TYPE":"U","RA_OF_ASC_NODE":"279.6264","MEAN_ELEMENT_THEORY":"SGP4","MEAN_MOTION":"15.08842512","EPOCH":"2022-09-25T18:24:13.957344","ECCENTRICITY":"0.00015420","ELEMENT_SET_NO":"999"},{"FILE":"3583828","NORAD_CAT_ID":"51857","ARG_OF_PERICENTER":"51.8254","LAUNCH_DATE":"2022-03-03","OBJECT_ID":"2022-022F","EPHEMERIS_TYPE":"0","PERIAPSIS":"538.592","REF_FRAME":"TEME","TIME_SYSTEM":"UTC","INCLINATION":"53.2176","MEAN_MOTION_DOT":"0.00001884","RCS_SIZE":"LARGE","SITE":"AFETR","CENTER_NAME":"EARTH","PERIOD":"95.438","OBJECT_TYPE":"PAYLOAD","MEAN_ANOMALY":"308.2889","REV_AT_EPOCH":"3266","OBJECT_NAME":"STARLINK-3571","MEAN_MOTION_DDOT":"0.0000000000000","GP_ID":"213507033","TLE_LINE2":"2 51857  53.2176 279.6680 0001672  51.8254 308.2889 15.08838877 32661","COUNTRY_CODE":"US","DECAY_DATE":null,"BSTAR":"0.00013643000000","TLE_LINE1":"1 51857U 22022F   22268.75579258  .00001884  00000-0  13643-3 0  9993","SEMIMAJOR_AXIS":"6917.884","APOAPSIS":"540.905","CLASSIFICATION_TYPE":"U","RA_OF_ASC_NODE":"279.6680","MEAN_ELEMENT_THEORY":"SGP4","ECCENTRICITY":"0.00016720","EPOCH":"2022-09-25T18:08:20.478912","MEAN_MOTION":"15.08838877","ELEMENT_SET_NO":"999"},{"CENTER_NAME":"EARTH","SITE":"AFETR","PERIOD":"95.437","INCLINATION":"53.2180","MEAN_MOTION_DOT":"0.00000819","TIME_SYSTEM":"UTC","RCS_SIZE":"LARGE","EPHEMERIS_TYPE":"0","PERIAPSIS":"538.483","REF_FRAME":"TEME","NORAD_CAT_ID":"51858","FILE":"3583351","ARG_OF_PERICENTER":"57.1063","OBJECT_ID":"2022-022G","LAUNCH_DATE":"2022-03-03","MEAN_ELEMENT_THEORY":"SGP4","ELEMENT_SET_NO":"999","ECCENTRICITY":"0.00018210","EPOCH":"2022-09-25T08:41:19.125024","MEAN_MOTION":"15.08840932","TLE_LINE1":"1 51858U 22022G   22268.36202691  .00000819  00000-0  69539-4 0  9998","BSTAR":"0.00006953900000","SEMIMAJOR_AXIS":"6917.878","APOAPSIS":"541.002","DECAY_DATE":null,"COUNTRY_CODE":"US","RA_OF_ASC_NODE":"281.4393","CLASSIFICATION_TYPE":"U","TLE_LINE2":"2 51858  53.2180 281.4393 0001821  57.1063 303.0105 15.08840932 32605","GP_ID":"213446974","MEAN_MOTION_DDOT":"0.0000000000000","OBJECT_TYPE":"PAYLOAD","MEAN_ANOMALY":"303.0105","REV_AT_EPOCH":"3260","OBJECT_NAME":"STARLINK-3563"},{"FILE":"3583351","NORAD_CAT_ID":"51859","LAUNCH_DATE":"2022-03-03","OBJECT_ID":"2022-022H","ARG_OF_PERICENTER":"47.3485","EPHEMERIS_TYPE":"0","PERIAPSIS":"538.392","REF_FRAME":"TEME","MEAN_MOTION_DOT":"-0.00000170","INCLINATION":"53.2164","TIME_SYSTEM":"UTC","RCS_SIZE":"LARGE","CENTER_NAME":"EARTH","SITE":"AFETR","PERIOD":"95.438","MEAN_ANOMALY":"312.7676","OBJECT_TYPE":"PAYLOAD","REV_AT_EPOCH":"3275","OBJECT_NAME":"STARLINK-3560","GP_ID":"213447224","TLE_LINE2":"2 51859  53.2164 271.0605 0002016  47.3485 312.7676 15.08826624 32753","MEAN_MOTION_DDOT":"0.0000000000000","APOAPSIS":"541.181","BSTAR":"0.00000745500000","TLE_LINE1":"1 51859U 22022H   22268.44391072 -.00000170  00000-0  74550-5 0  9991","SEMIMAJOR_AXIS":"6917.921","COUNTRY_CODE":"US","DECAY_DATE":null,"RA_OF_ASC_NODE":"271.0605","CLASSIFICATION_TYPE":"U","MEAN_ELEMENT_THEORY":"SGP4","ELEMENT_SET_NO":"999","MEAN_MOTION":"15.08826624","ECCENTRICITY":"0.00020160","EPOCH":"2022-09-25T10:39:13.886208"},{"TIME_SYSTEM":"UTC","INCLINATION":"53.2175","MEAN_MOTION_DOT":"0.00001466","RCS_SIZE":"LARGE","SITE":"AFETR","CENTER_NAME":"EARTH","PERIOD":"95.437","NORAD_CAT_ID":"51860","FILE":"3583351","LAUNCH_DATE":"2022-03-03","OBJECT_ID":"2022-022J","ARG_OF_PERICENTER":"49.3228","EPHEMERIS_TYPE":"0","PERIAPSIS":"538.289","REF_FRAME":"TEME","COUNTRY_CODE":"US","DECAY_DATE":null,"APOAPSIS":"541.185","TLE_LINE1":"1 51860U 22022J   22268.31878756  .00001466  00000-0  11018-3 0  9994","SEMIMAJOR_AXIS":"6917.872","BSTAR":"0.00011018000000","CLASSIFICATION_TYPE":"U","RA_OF_ASC_NODE":"271.6227","MEAN_ELEMENT_THEORY":"SGP4","MEAN_MOTION":"15.08842691","ECCENTRICITY":"0.00020930","EPOCH":"2022-09-25T07:39:03.245184","ELEMENT_SET_NO":"999","MEAN_ANOMALY":"310.7946","OBJECT_TYPE":"PAYLOAD","REV_AT_EPOCH":"3269","OBJECT_NAME":"STARLINK-3559","MEAN_MOTION_DDOT":"0.0000000000000","GP_ID":"213445473","TLE_LINE2":"2 51860  53.2175 271.6227 0002093  49.3228 310.7946 15.08842691 32698"},{"COUNTRY_CODE":"US","DECAY_DATE":null,"APOAPSIS":"541.000","TLE_LINE1":"1 51861U 22022K   22268.43655115  .00001703  00000-0  12506-3 0  9997","BSTAR":"0.00012506000000","SEMIMAJOR_AXIS":"6917.862","CLASSIFICATION_TYPE":"U","RA_OF_ASC_NODE":"271.0981","MEAN_ELEMENT_THEORY":"SGP4","MEAN_MOTION":"15.08846053","EPOCH":"2022-09-25T10:28:38.019360","ECCENTRICITY":"0.00018400","ELEMENT_SET_NO":"999","MEAN_ANOMALY":"314.5324","OBJECT_TYPE":"PAYLOAD","REV_AT_EPOCH":"3262","OBJECT_NAME":"STARLINK-3562","MEAN_MOTION_DDOT":"0.0000000000000","GP_ID":"213445723","TLE_LINE2":"2 51861  53.2154 271.0981 0001840  45.5819 314.5324 15.08846053 32621","TIME_SYSTEM":"UTC","MEAN_MOTION_DOT":"0.00001703","INCLINATION":"53.2154","RCS_SIZE":"LARGE","SITE":"AFETR","CENTER_NAME":"EARTH","PERIOD":"95.437","FILE":"3583351","NORAD_CAT_ID":"51861","LAUNCH_DATE":"2022-03-03","OBJECT_ID":"2022-022K","ARG_OF_PERICENTER":"45.5819","EPHEMERIS_TYPE":"0","REF_FRAME":"TEME","PERIAPSIS":"538.454"},{"OBJECT_ID":"2022-022L","LAUNCH_DATE":"2022-03-03","ARG_OF_PERICENTER":"62.4275","FILE":"3583351","NORAD_CAT_ID":"51862","REF_FRAME":"TEME","PERIAPSIS":"538.566","EPHEMERIS_TYPE":"0","RCS_SIZE":"MEDIUM","MEAN_MOTION_DOT":"-0.00000305","INCLINATION":"53.2192","TIME_SYSTEM":"UTC","PERIOD":"95.438","CENTER_NAME":"EARTH","SITE":"AFETR","REV_AT_EPOCH":"3274","OBJECT_NAME":"STARLINK-3508","MEAN_ANOMALY":"297.6894","OBJECT_TYPE":"PAYLOAD","TLE_LINE2":"2 51862  53.2192 271.6525 0001742  62.4275 297.6894 15.08831584 32748","GP_ID":"213446474","MEAN_MOTION_DDOT":"0.0000000000000","RA_OF_ASC_NODE":"271.6525","CLASSIFICATION_TYPE":"U","APOAPSIS":"540.976","SEMIMAJOR_AXIS":"6917.906","TLE_LINE1":"1 51862U 22022L   22268.31511400 -.00000305  00000-0 -10731-5 0  9992","BSTAR":"-0.00000107310000","COUNTRY_CODE":"US","DECAY_DATE":null,"ELEMENT_SET_NO":"999","MEAN_MOTION":"15.08831584","EPOCH":"2022-09-25T07:33:45.849600","ECCENTRICITY":"0.00017420","MEAN_ELEMENT_THEORY":"SGP4"},{"PERIOD":"95.438","SITE":"AFETR","CENTER_NAME":"EARTH","RCS_SIZE":"LARGE","TIME_SYSTEM":"UTC","INCLINATION":"53.2168","MEAN_MOTION_DOT":"-0.00000961","REF_FRAME":"TEME","PERIAPSIS":"538.523","EPHEMERIS_TYPE":"0","ARG_OF_PERICENTER":"47.0670","OBJECT_ID":"2022-022M","LAUNCH_DATE":"2022-03-03","NORAD_CAT_ID":"51863","FILE":"3583351","EPOCH":"2022-09-25T10:18:02.267424","ECCENTRICITY":"0.00017780","MEAN_MOTION":"15.08837535","ELEMENT_SET_NO":"999","MEAN_ELEMENT_THEORY":"SGP4","CLASSIFICATION_TYPE":"U","RA_OF_ASC_NODE":"271.1431","COUNTRY_CODE":"US","DECAY_DATE":null,"TLE_LINE1":"1 51863U 22022M   22268.42919291 -.00000961  00000-0 -42313-4 0  9993","BSTAR":"-0.00004231300000","SEMIMAJOR_AXIS":"6917.888","APOAPSIS":"540.983","MEAN_MOTION_DDOT":"0.0000000000000","TLE_LINE2":"2 51863  53.2168 271.1431 0001778  47.0670 313.0471 15.08837535 32702","GP_ID":"213446724","OBJECT_NAME":"STARLINK-3555","REV_AT_EPOCH":"3270","OBJECT_TYPE":"PAYLOAD","MEAN_ANOMALY":"313.0471"},{"FILE":"3583351","NORAD_CAT_ID":"51864","ARG_OF_PERICENTER":"55.9437","OBJECT_ID":"2022-022N","LAUNCH_DATE":"2022-03-03","EPHEMERIS_TYPE":"0","REF_FRAME":"TEME","PERIAPSIS":"538.433","TIME_SYSTEM":"UTC","MEAN_MOTION_DOT":"0.00001902","INCLINATION":"53.2178","RCS_SIZE":"LARGE","SITE":"AFETR","CENTER_NAME":"EARTH","PERIOD":"95.437","OBJECT_TYPE":"PAYLOAD","MEAN_ANOMALY":"304.1734","REV_AT_EPOCH":"3273","OBJECT_NAME":"STARLINK-3548","MEAN_MOTION_DDOT":"0.0000000000000","GP_ID":"213445974","TLE_LINE2":"2 51864  53.2178 271.6814 0001884  55.9437 304.1734 15.08843051 32737","DECAY_DATE":null,"COUNTRY_CODE":"US","TLE_LINE1":"1 51864U 22022N   22268.30774591  .00001902  00000-0  13754-3 0  9993","BSTAR":"0.00013754000000","SEMIMAJOR_AXIS":"6917.871","APOAPSIS":"541.039","CLASSIFICATION_TYPE":"U","RA_OF_ASC_NODE":"271.6814","MEAN_ELEMENT_THEORY":"SGP4","ECCENTRICITY":"0.00018840","EPOCH":"2022-09-25T07:23:09.246624","MEAN_MOTION":"15.08843051","ELEMENT_SET_NO":"999"},{"MEAN_MOTION_DDOT":"0.0000000000000","GP_ID":"213446224","TLE_LINE2":"2 51865  53.2158 270.8848 0002135  50.6217 309.4964 15.08852605 32718","OBJECT_TYPE":"PAYLOAD","MEAN_ANOMALY":"309.4964","REV_AT_EPOCH":"3271","OBJECT_NAME":"STARLINK-3503","MEAN_ELEMENT_THEORY":"SGP4","EPOCH":"2022-09-25T11:42:50.248512","ECCENTRICITY":"0.00021350","MEAN_MOTION":"15.08852605","ELEMENT_SET_NO":"999","COUNTRY_CODE":"US","DECAY_DATE":null,"BSTAR":"0.00009602900000","TLE_LINE1":"1 51865U 22022P   22268.48808158  .00001241  00000-0  96029-4 0  9993","SEMIMAJOR_AXIS":"6917.842","APOAPSIS":"541.184","CLASSIFICATION_TYPE":"U","RA_OF_ASC_NODE":"270.8848","EPHEMERIS_TYPE":"0","REF_FRAME":"TEME","PERIAPSIS":"538.230","FILE":"3583351","NORAD_CAT_ID":"51865","ARG_OF_PERICENTER":"50.6217","LAUNCH_DATE":"2022-03-03","OBJECT_ID":"2022-022P","SITE":"AFETR","CENTER_NAME":"EARTH","PERIOD":"95.437","TIME_SYSTEM":"UTC","MEAN_MOTION_DOT":"0.00001241","INCLINATION":"53.2158","RCS_SIZE":"LARGE"}];
